[{"OBJECT_NAME":"STARLINK-3849","OBJECT_ID":"2022-045N","EPOCH":"2026-03-09T15:53:37.561920","MEAN_MOTION":15.08850155,"ECCENTRICITY":0.00011739,"INCLINATION":53.2171,"RA_OF_ASC_NODE":209.2445,"ARG_OF_PERICENTER":76.4234,"MEAN_ANOMALY":283.6889,"EPHEMERIS_TYPE":0,"CLASSIFICATION_TYPE":"U","NORAD_CAT_ID":52343,"ELEMENT_SET_NO":999,"REV_AT_EPOCH":21564,"BSTAR":-0.00015192366,"MEAN_MOTION_DOT":-2.706e-5,"MEAN_MOTION_DDOT":0},{"OBJECT_NAME":"STRIX-2","OBJECT_ID":"2024-248A","EPOCH":"2026-03-09T23:00:54.819648","MEAN_MOTION":15.07630986,"ECCENTRICITY":0.00151844,"INCLINATION":97.6197,"RA_OF_ASC_NODE":25.3276,"ARG_OF_PERICENTER":319.5195,"MEAN_ANOMALY":40.4902,"EPHEMERIS_TYPE":0,"CLASSIFICATION_TYPE":"U","NORAD_CAT_ID":62406,"ELEMENT_SET_NO":999,"REV_AT_EPOCH":6663,"BSTAR":0.00066021351,"MEAN_MOTION_DOT":0.00010025,"MEAN_MOTION_DDOT":0}]
